[
  {
    "OBJECT_NAME": "STARLINK-1700",
    "OBJECT_ID": "20070T",
    "EPOCH": "2025-11-11T08:00:03.000384",
    "MEAN_MOTION": 15.58747932,
    "ECCENTRICITY": 0.00052,
    "INCLINATION": 53.0418,
    "RA_OF_ASC_NODE": 298.1097,
    "ARG_OF_PERICENTER": 14.4845,
    "MEAN_ANOMALY": 44.2005,
    "EPHEMERIS_TYPE": 0,
    "CLASSIFICATION_TYPE": "U",
    "NORAD_CAT_ID": 46549,
    "ELEMENT_SET_NO": 999,
    "REV_AT_EPOCH": 588,
    "BSTAR": 0.0034387000000000003,
    "MEAN_MOTION_DOT": 0.00279079,
    "MEAN_MOTION_DDOT": 0.0,
    "TLE_LINE1": "1 46549U 20070T   25315.33336806  .00279079  00000+0  34387-2 0  9995",
    "TLE_LINE2": "2 46549  53.0418 298.1097 0005200  14.4845  44.2005 15.58747932  5887",
    "COMMENT": "Grouped by shell and plane from TLE"
  },
  {
    "OBJECT_NAME": "STARLINK-11465 [DTC]",
    "OBJECT_ID": "24217A",
    "EPOCH": "2025-11-11T05:56:23.625024",
    "MEAN_MOTION": 15.6978388,
    "ECCENTRICITY": 0.0001098,
    "INCLINATION": 53.1577,
    "RA_OF_ASC_NODE": 294.9304,
    "ARG_OF_PERICENTER": 74.7443,
    "MEAN_ANOMALY": 285.3696,
    "EPHEMERIS_TYPE": 0,
    "CLASSIFICATION_TYPE": "U",
    "NORAD_CAT_ID": 62057,
    "ELEMENT_SET_NO": 999,
    "REV_AT_EPOCH": 5657,
    "BSTAR": 0.0016611999999999998,
    "MEAN_MOTION_DOT": 0.00206384,
    "MEAN_MOTION_DDOT": 0.0,
    "TLE_LINE1": "1 62057U 24217A   25315.24749566  .00206384  00000+0  16612-2 0  9995",
    "TLE_LINE2": "2 62057  53.1577 294.9304 0001098  74.7443 285.3696 15.69783880 56575",
    "COMMENT": "Grouped by shell and plane from TLE"
  },
  {
    "OBJECT_NAME": "STARLINK-11426 [DTC]",
    "OBJECT_ID": "24217B",
    "EPOCH": "2025-11-11T05:49:19.885728",
    "MEAN_MOTION": 15.6975153,
    "ECCENTRICITY": 0.0001967,
    "INCLINATION": 53.1574,
    "RA_OF_ASC_NODE": 294.8959,
    "ARG_OF_PERICENTER": 96.2821,
    "MEAN_ANOMALY": 263.8421,
    "EPHEMERIS_TYPE": 0,
    "CLASSIFICATION_TYPE": "U",
    "NORAD_CAT_ID": 62058,
    "ELEMENT_SET_NO": 999,
    "REV_AT_EPOCH": 5651,
    "BSTAR": 0.0012738,
    "MEAN_MOTION_DOT": 0.00156951,
    "MEAN_MOTION_DDOT": 0.0,
    "TLE_LINE1": "1 62058U 24217B   25315.24259127  .00156951  00000+0  12738-2 0  9994",
    "TLE_LINE2": "2 62058  53.1574 294.8959 0001967  96.2821 263.8421 15.69751530 56510",
    "COMMENT": "Grouped by shell and plane from TLE"
  },
  {
    "OBJECT_NAME": "STARLINK-11454 [DTC]",
    "OBJECT_ID": "24217C",
    "EPOCH": "2025-11-11T05:07:05.733120",
    "MEAN_MOTION": 15.69810335,
    "ECCENTRICITY": 0.0001405,
    "INCLINATION": 53.1582,
    "RA_OF_ASC_NODE": 295.4377,
    "ARG_OF_PERICENTER": 75.8927,
    "MEAN_ANOMALY": 284.2247,
    "EPHEMERIS_TYPE": 0,
    "CLASSIFICATION_TYPE": "U",
    "NORAD_CAT_ID": 62059,
    "ELEMENT_SET_NO": 999,
    "REV_AT_EPOCH": 5656,
    "BSTAR": 0.0020939,
    "MEAN_MOTION_DOT": 0.00262359,
    "MEAN_MOTION_DDOT": 0.0,
    "TLE_LINE1": "1 62059U 24217C   25315.21326080  .00262359  00000+0  20939-2 0  9997",
    "TLE_LINE2": "2 62059  53.1582 295.4377 0001405  75.8927 284.2247 15.69810335 56565",
    "COMMENT": "Grouped by shell and plane from TLE"
  },
  {
    "OBJECT_NAME": "STARLINK-11473 [DTC]",
    "OBJECT_ID": "24217D",
    "EPOCH": "2025-11-11T06:52:54.452640",
    "MEAN_MOTION": 15.69761334,
    "ECCENTRICITY": 0.000166,
    "INCLINATION": 53.1567,
    "RA_OF_ASC_NODE": 295.1883,
    "ARG_OF_PERICENTER": 68.2905,
    "MEAN_ANOMALY": 291.829,
    "EPHEMERIS_TYPE": 0,
    "CLASSIFICATION_TYPE": "U",
    "NORAD_CAT_ID": 62060,
    "ELEMENT_SET_NO": 999,
    "REV_AT_EPOCH": 5657,
    "BSTAR": 0.0012642,
    "MEAN_MOTION_DOT": 0.00155804,
    "MEAN_MOTION_DDOT": 0.0,
    "TLE_LINE1": "1 62060U 24217D   25315.28674135  .00155804  00000+0  12642-2 0  9991",
    "TLE_LINE2": "2 62060  53.1567 295.1883 0001660  68.2905 291.8290 15.69761334 56571",
    "COMMENT": "Grouped by shell and plane from TLE"
  },
  {
    "OBJECT_NAME": "STARLINK-11429 [DTC]",
    "OBJECT_ID": "24217E",
    "EPOCH": "2025-11-11T06:31:42.375072",
    "MEAN_MOTION": 15.69759392,
    "ECCENTRICITY": 0.000368,
    "INCLINATION": 53.1578,
    "RA_OF_ASC_NODE": 295.0905,
    "ARG_OF_PERICENTER": 147.5636,
    "MEAN_ANOMALY": 212.5609,
    "EPHEMERIS_TYPE": 0,
    "CLASSIFICATION_TYPE": "U",
    "NORAD_CAT_ID": 62061,
    "ELEMENT_SET_NO": 999,
    "REV_AT_EPOCH": 5657,
    "BSTAR": 0.00016699,
    "MEAN_MOTION_DOT": 0.00019734,
    "MEAN_MOTION_DDOT": 0.0,
    "TLE_LINE1": "1 62061U 24217E   25315.27201823  .00019734  00000+0  16699-3 0  9999",
    "TLE_LINE2": "2 62061  53.1578 295.0905 0003680 147.5636 212.5609 15.69759392 56579",
    "COMMENT": "Grouped by shell and plane from TLE"
  },
  {
    "OBJECT_NAME": "STARLINK-11470 [DTC]",
    "OBJECT_ID": "24217F",
    "EPOCH": "2025-11-11T04:52:58.241568",
    "MEAN_MOTION": 15.69729623,
    "ECCENTRICITY": 0.0002225,
    "INCLINATION": 53.1578,
    "RA_OF_ASC_NODE": 295.3694,
    "ARG_OF_PERICENTER": 46.9234,
    "MEAN_ANOMALY": 313.197,
    "EPHEMERIS_TYPE": 0,
    "CLASSIFICATION_TYPE": "U",
    "NORAD_CAT_ID": 62062,
    "ELEMENT_SET_NO": 999,
    "REV_AT_EPOCH": 5650,
    "BSTAR": 0.0030852,
    "MEAN_MOTION_DOT": 0.00391689,
    "MEAN_MOTION_DDOT": 0.0,
    "TLE_LINE1": "1 62062U 24217F   25315.20345187  .00391689  00000+0  30852-2 0  9993",
    "TLE_LINE2": "2 62062  53.1578 295.3694 0002225  46.9234 313.1970 15.69729623 56504",
    "COMMENT": "Grouped by shell and plane from TLE"
  },
  {
    "OBJECT_NAME": "STARLINK-11427 [DTC]",
    "OBJECT_ID": "24217G",
    "EPOCH": "2025-11-11T05:14:09.621024",
    "MEAN_MOTION": 15.69738915,
    "ECCENTRICITY": 0.0001372,
    "INCLINATION": 53.1578,
    "RA_OF_ASC_NODE": 295.4694,
    "ARG_OF_PERICENTER": 94.2448,
    "MEAN_ANOMALY": 265.8727,
    "EPHEMERIS_TYPE": 0,
    "CLASSIFICATION_TYPE": "U",
    "NORAD_CAT_ID": 62063,
    "ELEMENT_SET_NO": 999,
    "REV_AT_EPOCH": 5656,
    "BSTAR": 0.002071,
    "MEAN_MOTION_DOT": 0.0025859,
    "MEAN_MOTION_DDOT": 0.0,
    "TLE_LINE1": "1 62063U 24217G   25315.21816691  .00258590  00000+0  20710-2 0  9993",
    "TLE_LINE2": "2 62063  53.1578 295.4694 0001372  94.2448 265.8727 15.69738915 56564",
    "COMMENT": "Grouped by shell and plane from TLE"
  },
  {
    "OBJECT_NAME": "STARLINK-11456 [DTC]",
    "OBJECT_ID": "24217H",
    "EPOCH": "2025-11-11T06:03:28.216224",
    "MEAN_MOTION": 15.6972957,
    "ECCENTRICITY": 0.000174,
    "INCLINATION": 53.1568,
    "RA_OF_ASC_NODE": 294.9608,
    "ARG_OF_PERICENTER": 80.5669,
    "MEAN_ANOMALY": 279.5545,
    "EPHEMERIS_TYPE": 0,
    "CLASSIFICATION_TYPE": "U",
    "NORAD_CAT_ID": 62064,
    "ELEMENT_SET_NO": 999,
    "REV_AT_EPOCH": 5657,
    "BSTAR": 0.00094293,
    "MEAN_MOTION_DOT": 0.00115342,
    "MEAN_MOTION_DDOT": 0.0,
    "TLE_LINE1": "1 62064U 24217H   25315.25240991  .00115342  00000+0  94293-3 0  9997",
    "TLE_LINE2": "2 62064  53.1568 294.9608 0001740  80.5669 279.5545 15.69729570 56573",
    "COMMENT": "Grouped by shell and plane from TLE"
  },
  {
    "OBJECT_NAME": "STARLINK-11474 [DTC]",
    "OBJECT_ID": "24217J",
    "EPOCH": "2025-11-11T07:13:57.007200",
    "MEAN_MOTION": 15.69793749,
    "ECCENTRICITY": 0.0001268,
    "INCLINATION": 53.1573,
    "RA_OF_ASC_NODE": 294.5488,
    "ARG_OF_PERICENTER": 81.4265,
    "MEAN_ANOMALY": 278.6897,
    "EPHEMERIS_TYPE": 0,
    "CLASSIFICATION_TYPE": "U",
    "NORAD_CAT_ID": 62065,
    "ELEMENT_SET_NO": 999,
    "REV_AT_EPOCH": 5658,
    "BSTAR": 0.0017962,
    "MEAN_MOTION_DOT": 0.00223768,
    "MEAN_MOTION_DDOT": 0.0,
    "TLE_LINE1": "1 62065U 24217J   25315.30135425  .00223768  00000+0  17962-2 0  9998",
    "TLE_LINE2": "2 62065  53.1573 294.5488 0001268  81.4265 278.6897 15.69793749 56589",
    "COMMENT": "Grouped by shell and plane from TLE"
  },
  {
    "OBJECT_NAME": "STARLINK-11463 [DTC]",
    "OBJECT_ID": "24217K",
    "EPOCH": "2025-11-11T03:14:13.415136",
    "MEAN_MOTION": 15.69779185,
    "ECCENTRICITY": 0.0001876,
    "INCLINATION": 53.1571,
    "RA_OF_ASC_NODE": 295.6512,
    "ARG_OF_PERICENTER": 43.0195,
    "MEAN_ANOMALY": 317.097,
    "EPHEMERIS_TYPE": 0,
    "CLASSIFICATION_TYPE": "U",
    "NORAD_CAT_ID": 62066,
    "ELEMENT_SET_NO": 999,
    "REV_AT_EPOCH": 5655,
    "BSTAR": 0.0031969999999999998,
    "MEAN_MOTION_DOT": 0.00407521,
    "MEAN_MOTION_DDOT": 0.0,
    "TLE_LINE1": "1 62066U 24217K   25315.13487749  .00407521  00000+0  31970-2 0  9995",
    "TLE_LINE2": "2 62066  53.1571 295.6512 0001876  43.0195 317.0970 15.69779185 56554",
    "COMMENT": "Grouped by shell and plane from TLE"
  },
  {
    "OBJECT_NAME": "STARLINK-11472 [DTC]",
    "OBJECT_ID": "24217L",
    "EPOCH": "2025-11-11T05:35:20.920992",
    "MEAN_MOTION": 15.69781313,
    "ECCENTRICITY": 0.0001126,
    "INCLINATION": 53.1573,
    "RA_OF_ASC_NODE": 295.5636,
    "ARG_OF_PERICENTER": 94.7695,
    "MEAN_ANOMALY": 265.3452,
    "EPHEMERIS_TYPE": 0,
    "CLASSIFICATION_TYPE": "U",
    "NORAD_CAT_ID": 62067,
    "ELEMENT_SET_NO": 999,
    "REV_AT_EPOCH": 5649,
    "BSTAR": 0.0024662,
    "MEAN_MOTION_DOT": 0.00310559,
    "MEAN_MOTION_DDOT": 0.0,
    "TLE_LINE1": "1 62067U 24217L   25315.23288103  .00310559  00000+0  24662-2 0  9994",
    "TLE_LINE2": "2 62067  53.1573 295.5636 0001126  94.7695 265.3452 15.69781313 56498",
    "COMMENT": "Grouped by shell and plane from TLE"
  },
  {
    "OBJECT_NAME": "STARLINK-11467 [DTC]",
    "OBJECT_ID": "24217M",
    "EPOCH": "2025-11-11T06:10:30.720864",
    "MEAN_MOTION": 15.69788343,
    "ECCENTRICITY": 0.0003745,
    "INCLINATION": 53.158,
    "RA_OF_ASC_NODE": 294.9919,
    "ARG_OF_PERICENTER": 149.0047,
    "MEAN_ANOMALY": 211.1192,
    "EPHEMERIS_TYPE": 0,
    "CLASSIFICATION_TYPE": "U",
    "NORAD_CAT_ID": 62068,
    "ELEMENT_SET_NO": 999,
    "REV_AT_EPOCH": 5657,
    "BSTAR": 0.00059866,
    "MEAN_MOTION_DOT": 0.00072833,
    "MEAN_MOTION_DDOT": 0.0,
    "TLE_LINE1": "1 62068U 24217M   25315.25730001  .00072833  00000+0  59866-3 0  9991",
    "TLE_LINE2": "2 62068  53.1580 294.9919 0003745 149.0047 211.1192 15.69788343 56577",
    "COMMENT": "Grouped by shell and plane from TLE"
  }
]